COSMOS 2251 DEB         
1 36420U 93036AZT 26062.52630966  .00000454  00000+0  16170-3 0  9999
2 36420  74.0364 126.9637 0018805 203.2803 221.6905 14.36987286861975
COSMOS 2251 DEB         
1 36430U 93036BAD 26043.54536314  .00000870  00000+0  34418-3 0  9990
2 36430  74.0059 356.3216 0095242 132.6405 228.2823 14.27947772654396
COSMOS 2251 DEB         
1 36437U 93036BAL 26063.73519232  .00015302  00000+0  24019-2 0  9991
2 36437  73.9390 233.6946 0020609  80.4154 279.9345 14.72491053672570
COSMOS 2251 DEB         
1 36439U 93036BAN 26061.31995188  .00000923  00000+0  87757-3 0  9995
2 36439  73.9671 269.6643 0426044 226.2068 130.3061 13.48095690596854
COSMOS 2251 DEB         
1 36441U 93036BAQ 26061.75650820  .00011967  00000+0  67127-3 0  9996
2 36441  73.8355 183.1226 0108476 266.0547  92.8237 15.08453793881711
COSMOS 2251 DEB         
1 36451U 93036BBA 26062.02866009  .00002169  00000+0  88602-3 0  9991
2 36451  73.9545 191.0672 0184714 356.8091   3.1857 14.19093887853647
COSMOS 2251 DEB         
1 36453U 93036BBC 26062.26337955  .00004579  00000+0  10708-2 0  9990
2 36453  73.9271 359.3994 0072186 245.2598 267.4062 14.53349900856377
COSMOS 2251 DEB         
1 36459U 93036BBJ 26057.13961792  .00003257  00000+0  12580-2 0  9990
2 36459  74.0464 223.5036 0115154 301.5673  57.4272 14.26981616 89577
COSMOS 2251 DEB         
1 36470U 93036BBV 26058.76177771  .00071068  00000+0  34538-2 0  9991
2 36470  73.8349  92.9986 0028034 278.5786  81.2232 15.17732907672587
COSMOS 2251 DEB         
1 36528U 93036BCN 26047.60264214  .00001435  00000+0  53556-3 0  9998
2 36528  74.0163  25.1656 0082039  57.9736 302.9350 14.30929428653694
COSMOS 2251 DEB         
1 36533U 93036BCT 26062.15705636  .00001638  00000+0  42312-3 0  9992
2 36533  74.0130 323.5926 0046907  93.4986 267.1542 14.50120676856505
COSMOS 2251 DEB         
1 36539U 93036BCZ 26063.50727408  .00004236  00000+0  88586-3 0  9999
2 36539  74.0203 259.1198 0026696  19.4144 340.8032 14.59908230851400
COSMOS 2251 DEB         
1 36540U 93036BDA 26062.86240271  .00008262  00000+0  17426-2 0  9994
2 36540  74.0307  25.8909 0011175  78.9303 281.3118 14.59510654871931
COSMOS 2251 DEB         
1 36550U 93036BDL 26056.35118133  .00001274  00000+0  51319-3 0  9999
2 36550  74.0430  57.7400 0074767  90.6602 270.3114 14.27498925856600
COSMOS 2251 DEB         
1 36551U 93036BDM 26063.36420769  .00059651  00000+0  39061-2 0  9991
2 36551  73.8846 206.1378 0042229 137.6805 222.7656 15.06690775681599
COSMOS 2251 DEB         
1 36557U 93036BDT 26062.39738942  .00020549  00000+0  25802-2 0  9996
2 36557  73.9810 326.7620 0019731 106.8505 253.4838 14.81953810350908
