[{"OBJECT_NAME":"COSMOS 2251 DEB","OBJECT_ID":"1993-036AZT","EPOCH":"2026-03-03T12:37:53.154624","MEAN_MOTION":14.36987286,"ECCENTRICITY":0.0018805,"INCLINATION":74.0364,"RA_OF_ASC_NODE":126.9637,"ARG_OF_PERICENTER":203.2803,"MEAN_ANOMALY":221.6905,"EPHEMERIS_TYPE":0,"CLASSIFICATION_TYPE":"U","NORAD_CAT_ID":36420,"ELEMENT_SET_NO":999,"REV_AT_EPOCH":86197,"BSTAR":0.00016170177,"MEAN_MOTION_DOT":4.54e-6,"MEAN_MOTION_DDOT":0},{"OBJECT_NAME":"COSMOS 2251 DEB","OBJECT_ID":"1993-036BAD","EPOCH":"2026-02-12T13:05:19.375296","MEAN_MOTION":14.27947772,"ECCENTRICITY":0.0095242,"INCLINATION":74.0059,"RA_OF_ASC_NODE":356.3216,"ARG_OF_PERICENTER":132.6405,"MEAN_ANOMALY":228.2823,"EPHEMERIS_TYPE":0,"CLASSIFICATION_TYPE":"U","NORAD_CAT_ID":36430,"ELEMENT_SET_NO":999,"REV_AT_EPOCH":65439,"BSTAR":0.00034418,"MEAN_MOTION_DOT":8.7e-6,"MEAN_MOTION_DDOT":0},{"OBJECT_NAME":"COSMOS 2251 DEB","OBJECT_ID":"1993-036BAL","EPOCH":"2026-03-04T17:38:40.616448","MEAN_MOTION":14.72491053,"ECCENTRICITY":0.0020609,"INCLINATION":73.939,"RA_OF_ASC_NODE":233.6946,"ARG_OF_PERICENTER":80.4154,"MEAN_ANOMALY":279.9345,"EPHEMERIS_TYPE":0,"CLASSIFICATION_TYPE":"U","NORAD_CAT_ID":36437,"ELEMENT_SET_NO":999,"REV_AT_EPOCH":67257,"BSTAR":0.0024019,"MEAN_MOTION_DOT":0.00015302,"MEAN_MOTION_DDOT":0},{"OBJECT_NAME":"COSMOS 2251 DEB","OBJECT_ID":"1993-036BAN","EPOCH":"2026-03-02T07:40:43.842432","MEAN_MOTION":13.4809569,"ECCENTRICITY":0.04260445,"INCLINATION":73.9671,"RA_OF_ASC_NODE":269.6643,"ARG_OF_PERICENTER":226.2068,"MEAN_ANOMALY":130.3061,"EPHEMERIS_TYPE":0,"CLASSIFICATION_TYPE":"U","NORAD_CAT_ID":36439,"ELEMENT_SET_NO":999,"REV_AT_EPOCH":59685,"BSTAR":0.00087756968,"MEAN_MOTION_DOT":9.23e-6,"MEAN_MOTION_DDOT":0},{"OBJECT_NAME":"COSMOS 2251 DEB","OBJECT_ID":"1993-036BAQ","EPOCH":"2026-03-02T18:09:22.308480","MEAN_MOTION":15.08453793,"ECCENTRICITY":0.0108476,"INCLINATION":73.8355,"RA_OF_ASC_NODE":183.1226,"ARG_OF_PERICENTER":266.0547,"MEAN_ANOMALY":92.8237,"EPHEMERIS_TYPE":0,"CLASSIFICATION_TYPE":"U","NORAD_CAT_ID":36441,"ELEMENT_SET_NO":999,"REV_AT_EPOCH":88171,"BSTAR":0.00067126775,"MEAN_MOTION_DOT":0.00011967,"MEAN_MOTION_DDOT":0},{"OBJECT_NAME":"COSMOS 2251 DEB","OBJECT_ID":"1993-036BBA","EPOCH":"2026-03-03T00:41:16.231776","MEAN_MOTION":14.19093887,"ECCENTRICITY":0.01847145,"INCLINATION":73.9545,"RA_OF_ASC_NODE":191.0672,"ARG_OF_PERICENTER":356.8091,"MEAN_ANOMALY":3.1857,"EPHEMERIS_TYPE":0,"CLASSIFICATION_TYPE":"U","NORAD_CAT_ID":36451,"ELEMENT_SET_NO":999,"REV_AT_EPOCH":85364,"BSTAR":0.00088602424,"MEAN_MOTION_DOT":2.169e-5,"MEAN_MOTION_DDOT":0},{"OBJECT_NAME":"COSMOS 2251 DEB","OBJECT_ID":"1993-036BBC","EPOCH":"2026-03-03T06:19:15.993120","MEAN_MOTION":14.533499,"ECCENTRICITY":0.00721862,"INCLINATION":73.9271,"RA_OF_ASC_NODE":359.3994,"ARG_OF_PERICENTER":245.2598,"MEAN_ANOMALY":267.4062,"EPHEMERIS_TYPE":0,"CLASSIFICATION_TYPE":"U","NORAD_CAT_ID":36453,"ELEMENT_SET_NO":999,"REV_AT_EPOCH":85637,"BSTAR":0.0010707748,"MEAN_MOTION_DOT":4.579e-5,"MEAN_MOTION_DDOT":0},{"OBJECT_NAME":"COSMOS 2251 DEB","OBJECT_ID":"1993-036BBJ","EPOCH":"2026-02-26T03:21:02.988288","MEAN_MOTION":14.26981616,"ECCENTRICITY":0.01151542,"INCLINATION":74.0464,"RA_OF_ASC_NODE":223.5036,"ARG_OF_PERICENTER":301.5673,"MEAN_ANOMALY":57.4272,"EPHEMERIS_TYPE":0,"CLASSIFICATION_TYPE":"U","NORAD_CAT_ID":36459,"ELEMENT_SET_NO":999,"REV_AT_EPOCH":8957,"BSTAR":0.0012579512,"MEAN_MOTION_DOT":3.257e-5,"MEAN_MOTION_DDOT":0},{"OBJECT_NAME":"COSMOS 2251 DEB","OBJECT_ID":"1993-036BBV","EPOCH":"2026-02-27T18:16:57.594144","MEAN_MOTION":15.17732907,"ECCENTRICITY":0.00280345,"INCLINATION":73.8349,"RA_OF_ASC_NODE":92.9986,"ARG_OF_PERICENTER":278.5786,"MEAN_ANOMALY":81.2232,"EPHEMERIS_TYPE":0,"CLASSIFICATION_TYPE":"U","NORAD_CAT_ID":36470,"ELEMENT_SET_NO":999,"REV_AT_EPOCH":67258,"BSTAR":0.0034538195,"MEAN_MOTION_DOT":0.00071068,"MEAN_MOTION_DDOT":0},{"OBJECT_NAME":"COSMOS 2251 DEB","OBJECT_ID":"1993-036BCN","EPOCH":"2026-02-16T14:27:48.280896","MEAN_MOTION":14.30929428,"ECCENTRICITY":0.0082039,"INCLINATION":74.0163,"RA_OF_ASC_NODE":25.1656,"ARG_OF_PERICENTER":57.9736,"MEAN_ANOMALY":302.935,"EPHEMERIS_TYPE":0,"CLASSIFICATION_TYPE":"U","NORAD_CAT_ID":36528,"ELEMENT_SET_NO":999,"REV_AT_EPOCH":65369,"BSTAR":0.00053556,"MEAN_MOTION_DOT":1.435e-5,"MEAN_MOTION_DDOT":0},{"OBJECT_NAME":"COSMOS 2251 DEB","OBJECT_ID":"1993-036BCT","EPOCH":"2026-03-03T03:46:09.669504","MEAN_MOTION":14.50120676,"ECCENTRICITY":0.00469077,"INCLINATION":74.013,"RA_OF_ASC_NODE":323.5926,"ARG_OF_PERICENTER":93.4986,"MEAN_ANOMALY":267.1542,"EPHEMERIS_TYPE":0,"CLASSIFICATION_TYPE":"U","NORAD_CAT_ID":36533,"ELEMENT_SET_NO":999,"REV_AT_EPOCH":85650,"BSTAR":0.00042311523,"MEAN_MOTION_DOT":1.638e-5,"MEAN_MOTION_DDOT":0},{"OBJECT_NAME":"COSMOS 2251 DEB","OBJECT_ID":"1993-036BCZ","EPOCH":"2026-03-04T12:10:28.480512","MEAN_MOTION":14.5990823,"ECCENTRICITY":0.00266961,"INCLINATION":74.0203,"RA_OF_ASC_NODE":259.1198,"ARG_OF_PERICENTER":19.4144,"MEAN_ANOMALY":340.8032,"EPHEMERIS_TYPE":0,"CLASSIFICATION_TYPE":"U","NORAD_CAT_ID":36539,"ELEMENT_SET_NO":999,"REV_AT_EPOCH":85140,"BSTAR":0.0008858579,"MEAN_MOTION_DOT":4.236e-5,"MEAN_MOTION_DDOT":0},{"OBJECT_NAME":"COSMOS 2251 DEB","OBJECT_ID":"1993-036BDA","EPOCH":"2026-03-03T20:41:51.594144","MEAN_MOTION":14.59510654,"ECCENTRICITY":0.0011175,"INCLINATION":74.0307,"RA_OF_ASC_NODE":25.8909,"ARG_OF_PERICENTER":78.9303,"MEAN_ANOMALY":281.3118,"EPHEMERIS_TYPE":0,"CLASSIFICATION_TYPE":"U","NORAD_CAT_ID":36540,"ELEMENT_SET_NO":999,"REV_AT_EPOCH":87193,"BSTAR":0.0017426,"MEAN_MOTION_DOT":8.262e-5,"MEAN_MOTION_DDOT":0},{"OBJECT_NAME":"COSMOS 2251 DEB","OBJECT_ID":"1993-036BDL","EPOCH":"2026-02-25T08:25:42.066912","MEAN_MOTION":14.27498925,"ECCENTRICITY":0.00747671,"INCLINATION":74.043,"RA_OF_ASC_NODE":57.74,"ARG_OF_PERICENTER":90.6602,"MEAN_ANOMALY":270.3114,"EPHEMERIS_TYPE":0,"CLASSIFICATION_TYPE":"U","NORAD_CAT_ID":36550,"ELEMENT_SET_NO":999,"REV_AT_EPOCH":85660,"BSTAR":0.00051319073,"MEAN_MOTION_DOT":1.274e-5,"MEAN_MOTION_DDOT":0},{"OBJECT_NAME":"COSMOS 2251 DEB","OBJECT_ID":"1993-036BDM","EPOCH":"2026-03-04T08:44:27.544416","MEAN_MOTION":15.06690775,"ECCENTRICITY":0.00422296,"INCLINATION":73.8846,"RA_OF_ASC_NODE":206.1378,"ARG_OF_PERICENTER":137.6805,"MEAN_ANOMALY":222.7656,"EPHEMERIS_TYPE":0,"CLASSIFICATION_TYPE":"U","NORAD_CAT_ID":36551,"ELEMENT_SET_NO":999,"REV_AT_EPOCH":68159,"BSTAR":0.0039061477,"MEAN_MOTION_DOT":0.00059651,"MEAN_MOTION_DDOT":0},{"OBJECT_NAME":"COSMOS 2251 DEB","OBJECT_ID":"1993-036BDT","EPOCH":"2026-03-03T09:32:14.445888","MEAN_MOTION":14.8195381,"ECCENTRICITY":0.00197319,"INCLINATION":73.981,"RA_OF_ASC_NODE":326.762,"ARG_OF_PERICENTER":106.8505,"MEAN_ANOMALY":253.4838,"EPHEMERIS_TYPE":0,"CLASSIFICATION_TYPE":"U","NORAD_CAT_ID":36557,"ELEMENT_SET_NO":999,"REV_AT_EPOCH":35090,"BSTAR":0.0025801743,"MEAN_MOTION_DOT":0.00020549,"MEAN_MOTION_DDOT":0}]
